NORAD_CAT_ID,OBJECT_NAME,OBJECT_TYPE,EPOCH,MEAN_MOTION,ECCENTRICITY,INCLINATION,RA_OF_ASC_NODE,ARG_OF_PERICENTER,MEAN_ANOMALY,BSTAR,MEAN_MOTION_DOT,MEAN_MOTION_DDOT,TLE_LINE0,TLE_LINE1,TLE_LINE2,SEMIMAJOR_AXIS,PERIOD,APOGEE,PERIGEE,DECAYED
53826.0,STARLINK-4756,PAYLOAD,2023-05-20 10:18:07,15.08862498,8.23e-05,53.2165,222.1509,77.0106,283.0978,2.5583e-05,1.2e-06,0.0,0 STARLINK-4756,1 53826U 22114J   23140.42925824  .00000120  00000-0  25583-4 0  9990,2 53826  53.2165 222.1509 0000823  77.0106 283.0978 15.08862498 37663,6917.812,95.436,540.246,539.107,0.0
53826.0,STARLINK-4756,PAYLOAD,2023-05-20 11:53:31,15.08856476,7.74e-05,53.2163,221.8537,75.1709,284.9369,0.00020846,3.033e-05,0.0,0 STARLINK-4756,1 53826U 22114J   23140.49549987  .00003033  00000-0  20846-3 0  9991,2 53826  53.2163 221.8537 0000774  75.1709 284.9369 15.08856476 38216,6917.83,95.437,540.23,539.16,0.0
53826.0,STARLINK-4756,PAYLOAD,2023-05-20 23:01:13,15.08852565,0.0001077,53.214,219.7765,38.0073,322.0995,0.00013878,1.922e-05,0.0,0 STARLINK-4756,1 53826U 22114J   23140.95918494  .00001922  00000-0  13878-3 0  9997,2 53826  53.2140 219.7765 0001077  38.0073 322.0995 15.08852565 37740,6917.842,95.437,540.452,538.962,0.0
53826.0,STARLINK-4756,PAYLOAD,2023-05-21 08:33:33,15.08823602,7.89e-05,53.2151,217.9882,80.4384,279.6697,-0.00014265,-2.556e-05,0.0,0 STARLINK-4756,1 53826U 22114J   23141.35664197 -.00002556  00000-0 -14265-3 0  9997,2 53826  53.2151 217.9882 0000789  80.4384 279.6697 15.08823602 37800,6917.931,95.439,540.341,539.25,0.0
53826.0,STARLINK-4756,PAYLOAD,2023-05-21 11:44:19,15.08826709,7.08e-05,53.215,217.3935,85.1008,275.0064,-0.00018895,-3.292e-05,0.0,0 STARLINK-4756,1 53826U 22114J   23141.48911874 -.00003292  00000-0 -18895-3 0  9999,2 53826  53.2150 217.3935 0000708  85.1008 275.0064 15.08826709 38369,6917.921,95.438,540.276,539.296,0.0
53826.0,STARLINK-4756,PAYLOAD,2023-05-21 14:55:06,15.08828358,6.84e-05,53.2155,216.7979,107.4387,252.668,-0.0001408,-2.527e-05,0.0,0 STARLINK-4756,1 53826U 22114J   23141.62159881 -.00002527  00000-0 -14080-3 0  9999,2 53826  53.2155 216.7979 0000684 107.4387 252.6680 15.08828358 37845,6917.916,95.438,540.254,539.308,0.0
53826.0,STARLINK-4756,PAYLOAD,2023-05-22 11:35:06,15.08849631,6.29e-05,53.2149,212.9332,95.7029,264.4035,0.00095606,0.00014965,0.0,0 STARLINK-4756,1 53826U 22114J   23142.48271924  .00014965  00000-0  95606-3 0  9997,2 53826  53.2149 212.9332 0000629  95.7029 264.4035 15.08849631 37976,6917.851,95.437,540.151,539.281,0.0
53826.0,STARLINK-4756,PAYLOAD,2023-05-22 14:45:53,15.08854958,6.54e-05,53.2145,212.3388,95.832,264.2747,0.00098486,0.00015427,0.0,0 STARLINK-4756,1 53826U 22114J   23142.61519823  .00015427  00000-0  98486-3 0  9998,2 53826  53.2145 212.3388 0000654  95.8320 264.2747 15.08854958 38539,6917.835,95.437,540.152,539.247,0.0
53826.0,STARLINK-4756,PAYLOAD,2023-05-23 11:25:54,15.08840473,7.43e-05,53.215,208.4701,82.4645,277.6431,7.456e-05,8.99e-06,0.0,0 STARLINK-4756,1 53826U 22114J   23143.47632133  .00000899  00000-0  74560-4 0  9998,2 53826  53.2150 208.4701 0000743  82.4645 277.6431 15.08840473 38121,6917.879,95.438,540.258,539.23,0.0
53826.0,STARLINK-4756,PAYLOAD,2023-05-23 20:58:12,15.08842612,8.59e-05,53.2159,206.6874,81.4204,278.6886,0.00015423,2.168e-05,0.0,0 STARLINK-4756,1 53826U 22114J   23143.87376093  .00002168  00000-0  15423-3 0  9995,2 53826  53.2159 206.6874 0000859  81.4204 278.6886 15.08842612 38727,6917.872,95.437,540.332,539.143,0.0
53826.0,STARLINK-4756,PAYLOAD,2023-05-24 14:27:27,15.0884723,7.74e-05,53.2153,203.415,79.0429,281.065,5.3486e-05,5.64e-06,0.0,0 STARLINK-4756,1 53826U 22114J   23144.60239727  .00000564  00000-0  53486-4 0  9999,2 53826  53.2153 203.4150 0000774  79.0429 281.0650 15.08847230 38291,6917.858,95.437,540.259,539.188,0.0
53826.0,STARLINK-4756,PAYLOAD,2023-05-26 03:01:19,15.08842684,7.89e-05,53.2146,196.5769,85.0745,275.0337,7.387e-05,8.88e-06,0.0,0 STARLINK-4756,1 53826U 22114J   23146.12591819  .00000888  00000-0  73870-4 0  9999,2 53826  53.2146 196.5769 0000789  85.0745 275.0337 15.08842684 38524,6917.872,95.437,540.283,539.191,0.0
53826.0,STARLINK-4756,PAYLOAD,2023-05-26 10:58:14,15.08843041,7.81e-05,53.2148,195.0902,84.8284,275.2797,5.1904e-05,5.39e-06,0.0,0 STARLINK-4756,1 53826U 22114J   23146.45711744  .00000539  00000-0  51904-4 0  9993,2 53826  53.2148 195.0902 0000781  84.8284 275.2797 15.08843041 39112,6917.871,95.437,540.276,539.196,0.0
53826.0,STARLINK-4756,PAYLOAD,2023-05-27 09:13:38,15.08841895,7.62e-05,53.2159,190.9278,86.5566,273.5513,6.023e-05,6.71e-06,0.0,0 STARLINK-4756,1 53826U 22114J   23147.38447894  .00000671  00000-0  60230-4 0  9997,2 53826  53.2159 190.9278 0000762  86.5566 273.5513 15.08841895 38712,6917.875,95.437,540.267,539.212,0.0
53826.0,STARLINK-4756,PAYLOAD,2023-05-27 20:21:20,15.08841752,7.41e-05,53.2158,188.846,85.302,274.8057,6.3107e-05,7.17e-06,0.0,0 STARLINK-4756,1 53826U 22114J   23147.84815838  .00000717  00000-0  63107-4 0  9992,2 53826  53.2158 188.8460 0000741  85.3020 274.8057 15.08841752 39326,6917.875,95.437,540.253,539.227,0.0
53826.0,STARLINK-4756,PAYLOAD,2023-05-28 02:42:53,15.08840616,7.71e-05,53.2156,187.6563,87.9719,272.1362,6.7225e-05,7.82e-06,0.0,0 STARLINK-4756,1 53826U 22114J   23148.11311867  .00000782  00000-0  67225-4 0  9993,2 53826  53.2156 187.6563 0000771  87.9719 272.1362 15.08840616 39363,6917.879,95.438,540.277,539.21,0.0
53826.0,STARLINK-4756,PAYLOAD,2023-05-28 09:04:25,15.0884228,7.75e-05,53.2156,186.4669,86.9811,273.127,7.6187e-05,9.25e-06,0.0,0 STARLINK-4756,1 53826U 22114J   23148.37807757  .00000925  00000-0  76187-4 0  9995,2 53826  53.2156 186.4669 0000775  86.9811 273.1270 15.08842280 39406,6917.873,95.437,540.275,539.202,0.0
53826.0,STARLINK-4756,PAYLOAD,2023-05-29 07:19:49,15.08844193,7.74e-05,53.2156,182.3038,83.943,276.165,9.0943e-05,1.16e-05,0.0,0 STARLINK-4756,1 53826U 22114J   23149.30543477  .00001160  00000-0  90943-4 0  9993,2 53826  53.2156 182.3038 0000774  83.9430 276.1650 15.08844193 39000,6917.868,95.437,540.268,539.197,0.0
53826.0,STARLINK-4756,PAYLOAD,2023-05-29 12:05:58,15.08844616,7.8e-05,53.2155,181.4117,83.0138,277.0943,8.9534e-05,1.138e-05,0.0,0 STARLINK-4756,1 53826U 22114J   23149.50415397  .00001138  00000-0  89534-4 0  9993,2 53826  53.2155 181.4117 0000780  83.0138 277.0943 15.08844616 39577,6917.866,95.437,540.271,539.192,0.0
53826.0,STARLINK-4756,PAYLOAD,2023-05-30 08:46:00,15.08832823,8.03e-05,53.2151,177.5441,94.5688,265.5396,-5.8132e-06,-3.8e-06,0.0,0 STARLINK-4756,1 53826U 22114J   23150.36528476 -.00000380  00000-0 -58132-5 0  9993,2 53826  53.2151 177.5441 0000803  94.5688 265.5396 15.08832823 39168,6917.902,95.438,540.323,539.212,0.0
53826.0,STARLINK-4756,PAYLOAD,2023-05-30 18:18:19,15.08837468,8.37e-05,53.2161,175.7584,80.4643,279.6444,7.5147e-06,-1.68e-06,0.0,0 STARLINK-4756,1 53826U 22114J   23150.76272258 -.00000168  00000-0  75147-5 0  9999,2 53826  53.2161 175.7584 0000837  80.4643 279.6444 15.08837468 39765,6917.888,95.438,540.332,539.174,0.0
53826.0,STARLINK-4756,PAYLOAD,2023-05-31 07:01:24,15.08836685,8.68e-05,53.216,173.3792,81.2522,278.8569,5.341e-05,5.62e-06,0.0,0 STARLINK-4756,1 53826U 22114J   23151.29264284  .00000562  00000-0  53410-4 0  9993,2 53826  53.2160 173.3792 0000868  81.2522 278.8569 15.08836685 39846,6917.891,95.438,540.356,539.155,0.0
53826.0,STARLINK-4756,PAYLOAD,2023-06-01 08:27:34,15.08836876,7.73e-05,53.2156,168.6237,79.2622,280.8458,8.9526e-05,1.137e-05,0.0,0 STARLINK-4756,1 53826U 22114J   23152.35248524  .00001137  00000-0  89526-4 0  9996,2 53826  53.2156 168.6237 0000773  79.2622 280.8458 15.08836876 40007,6917.89,95.438,540.29,539.22,0.0
53826.0,STARLINK-4756,PAYLOAD,2023-06-02 09:53:44,15.08840954,8.13e-05,53.2158,163.8677,81.4278,278.6807,6.7837e-05,7.92e-06,0.0,0 STARLINK-4756,1 53826U 22114J   23153.41232483  .00000792  00000-0  67837-4 0  9998,2 53826  53.2158 163.8677 0000813  81.4278 278.6807 15.08840954 39622,6917.877,95.437,540.305,539.18,0.0
53826.0,STARLINK-4756,PAYLOAD,2023-06-02 17:50:40,15.0884006,8.22e-05,53.2158,162.3802,78.9055,281.2029,6.3583e-05,7.24e-06,0.0,0 STARLINK-4756,1 53826U 22114J   23153.74352595  .00000724  00000-0  63583-4 0  9990,2 53826  53.2158 162.3802 0000822  78.9055 281.2029 15.08840060 40211,6917.88,95.438,540.314,539.177,0.0
53826.0,STARLINK-4756,PAYLOAD,2023-06-03 09:44:32,15.08840549,8.23e-05,53.2156,159.4069,78.6204,281.4881,6.3439e-05,7.22e-06,0.0,0 STARLINK-4756,1 53826U 22114J   23154.40592610  .00000722  00000-0  63439-4 0  9996,2 53826  53.2156 159.4069 0000823  78.6204 281.4881 15.08840549 40316,6917.879,95.438,540.313,539.174,0.0
53826.0,STARLINK-4756,PAYLOAD,2023-06-03 17:41:27,15.0884048,8.29e-05,53.2155,157.9202,77.2896,282.8189,5.1393e-05,5.3e-06,0.0,0 STARLINK-4756,1 53826U 22114J   23154.73712620  .00000530  00000-0  51393-4 0  9990,2 53826  53.2155 157.9202 0000829  77.2896 282.8189 15.08840480 39829,6917.879,95.438,540.317,539.17,0.0
53826.0,STARLINK-4756,PAYLOAD,2023-06-04 06:24:32,15.08842383,8.3e-05,53.2155,155.541,77.4792,282.6293,6.3359e-05,7.21e-06,0.0,0 STARLINK-4756,1 53826U 22114J   23155.26704436  .00000721  00000-0  63359-4 0  9992,2 53826  53.2155 155.5410 0000830  77.4792 282.6293 15.08842383 40441,6917.873,95.437,540.312,539.164,0.0
53826.0,STARLINK-4756,PAYLOAD,2023-06-05 04:39:56,15.0884171,8.34e-05,53.2156,151.3778,75.4206,284.6878,7.2538e-05,8.67e-06,0.0,0 STARLINK-4756,1 53826U 22114J   23156.19440337  .00000867  00000-0  72538-4 0  9992,2 53826  53.2156 151.3778 0000834  75.4206 284.6878 15.08841710 40045,6917.875,95.437,540.317,539.163,0.0
53826.0,STARLINK-4756,PAYLOAD,2023-06-05 06:15:19,15.0884258,8.37e-05,53.2155,151.0801,78.1586,281.95,7.5717e-05,9.18e-06,0.0,0 STARLINK-4756,1 53826U 22114J   23156.26064255  .00000918  00000-0  75717-4 0  9990,2 53826  53.2155 151.0801 0000837  78.1586 281.9500 15.08842580 40590,6917.873,95.437,540.317,539.158,0.0
